<?xml version="1.0" encoding="UTF-8"?>
<ndm xmlns:xsi="http://www.w3.org/2001/XMLSchema-instance" xsi:noNamespaceSchemaLocation="https://sanaregistry.org/r/ndmxml_unqualified/ndmxml-2.0.0-master-2.0.xsd">
<omm id="CCSDS_OMM_VERS" version="2.0">
<header><CREATION_DATE/><ORIGINATOR/></header><body><segment><metadata><OBJECT_NAME>ORBCOMM FM20</OBJECT_NAME><OBJECT_ID>1998-046D</OBJECT_ID><CENTER_NAME>EARTH</CENTER_NAME><REF_FRAME>TEME</REF_FRAME><TIME_SYSTEM>UTC</TIME_SYSTEM><MEAN_ELEMENT_THEORY>SGP4</MEAN_ELEMENT_THEORY></metadata><data><meanElements><EPOCH>2024-10-04T12:03:16.988544</EPOCH><MEAN_MOTION>14.35945493</MEAN_MOTION><ECCENTRICITY>.0002018</ECCENTRICITY><INCLINATION>44.9941</INCLINATION><RA_OF_ASC_NODE>311.1268</RA_OF_ASC_NODE><ARG_OF_PERICENTER>277.7678</ARG_OF_PERICENTER><MEAN_ANOMALY>82.2940</MEAN_ANOMALY></meanElements><tleParameters><EPHEMERIS_TYPE>0</EPHEMERIS_TYPE><CLASSIFICATION_TYPE>U</CLASSIFICATION_TYPE><NORAD_CAT_ID>25416</NORAD_CAT_ID><ELEMENT_SET_NO>999</ELEMENT_SET_NO><REV_AT_EPOCH>36749</REV_AT_EPOCH><BSTAR>.19621E-2</BSTAR><MEAN_MOTION_DOT>.561E-4</MEAN_MOTION_DOT><MEAN_MOTION_DDOT>0</MEAN_MOTION_DDOT></tleParameters></data></segment></body></omm>
<omm id="CCSDS_OMM_VERS" version="2.0">
<header><CREATION_DATE/><ORIGINATOR/></header><body><segment><metadata><OBJECT_NAME>ORBCOMM FM16</OBJECT_NAME><OBJECT_ID>1998-046E</OBJECT_ID><CENTER_NAME>EARTH</CENTER_NAME><REF_FRAME>TEME</REF_FRAME><TIME_SYSTEM>UTC</TIME_SYSTEM><MEAN_ELEMENT_THEORY>SGP4</MEAN_ELEMENT_THEORY></metadata><data><meanElements><EPOCH>2024-10-04T11:43:08.030496</EPOCH><MEAN_MOTION>14.37191722</MEAN_MOTION><ECCENTRICITY>.0001596</ECCENTRICITY><INCLINATION>44.9935</INCLINATION><RA_OF_ASC_NODE>305.7298</RA_OF_ASC_NODE><ARG_OF_PERICENTER>72.5753</ARG_OF_PERICENTER><MEAN_ANOMALY>287.5269</MEAN_ANOMALY></meanElements><tleParameters><EPHEMERIS_TYPE>0</EPHEMERIS_TYPE><CLASSIFICATION_TYPE>U</CLASSIFICATION_TYPE><NORAD_CAT_ID>25417</NORAD_CAT_ID><ELEMENT_SET_NO>999</ELEMENT_SET_NO><REV_AT_EPOCH>36744</REV_AT_EPOCH><BSTAR>.25653E-2</BSTAR><MEAN_MOTION_DOT>.7571E-4</MEAN_MOTION_DOT><MEAN_MOTION_DDOT>0</MEAN_MOTION_DDOT></tleParameters></data></segment></body></omm>
<omm id="CCSDS_OMM_VERS" version="2.0">
<header><CREATION_DATE/><ORIGINATOR/></header><body><segment><metadata><OBJECT_NAME>ORBCOMM FM15</OBJECT_NAME><OBJECT_ID>1998-046F</OBJECT_ID><CENTER_NAME>EARTH</CENTER_NAME><REF_FRAME>TEME</REF_FRAME><TIME_SYSTEM>UTC</TIME_SYSTEM><MEAN_ELEMENT_THEORY>SGP4</MEAN_ELEMENT_THEORY></metadata><data><meanElements><EPOCH>2024-10-04T09:43:38.784000</EPOCH><MEAN_MOTION>14.36874955</MEAN_MOTION><ECCENTRICITY>.0001141</ECCENTRICITY><INCLINATION>44.9969</INCLINATION><RA_OF_ASC_NODE>310.5510</RA_OF_ASC_NODE><ARG_OF_PERICENTER>73.6244</ARG_OF_PERICENTER><MEAN_ANOMALY>286.4729</MEAN_ANOMALY></meanElements><tleParameters><EPHEMERIS_TYPE>0</EPHEMERIS_TYPE><CLASSIFICATION_TYPE>U</CLASSIFICATION_TYPE><NORAD_CAT_ID>25418</NORAD_CAT_ID><ELEMENT_SET_NO>999</ELEMENT_SET_NO><REV_AT_EPOCH>36743</REV_AT_EPOCH><BSTAR>.22161E-2</BSTAR><MEAN_MOTION_DOT>.6477E-4</MEAN_MOTION_DOT><MEAN_MOTION_DDOT>0</MEAN_MOTION_DDOT></tleParameters></data></segment></body></omm>
<omm id="CCSDS_OMM_VERS" version="2.0">
<header><CREATION_DATE/><ORIGINATOR/></header><body><segment><metadata><OBJECT_NAME>ORBCOMM FM14</OBJECT_NAME><OBJECT_ID>1998-046G</OBJECT_ID><CENTER_NAME>EARTH</CENTER_NAME><REF_FRAME>TEME</REF_FRAME><TIME_SYSTEM>UTC</TIME_SYSTEM><MEAN_ELEMENT_THEORY>SGP4</MEAN_ELEMENT_THEORY></metadata><data><meanElements><EPOCH>2024-10-04T11:29:18.614688</EPOCH><MEAN_MOTION>14.37117030</MEAN_MOTION><ECCENTRICITY>.0000866</ECCENTRICITY><INCLINATION>44.9958</INCLINATION><RA_OF_ASC_NODE>309.0758</RA_OF_ASC_NODE><ARG_OF_PERICENTER>351.8190</ARG_OF_PERICENTER><MEAN_ANOMALY>8.2643</MEAN_ANOMALY></meanElements><tleParameters><EPHEMERIS_TYPE>0</EPHEMERIS_TYPE><CLASSIFICATION_TYPE>U</CLASSIFICATION_TYPE><NORAD_CAT_ID>25419</NORAD_CAT_ID><ELEMENT_SET_NO>999</ELEMENT_SET_NO><REV_AT_EPOCH>36740</REV_AT_EPOCH><BSTAR>.23495E-2</BSTAR><MEAN_MOTION_DOT>.691E-4</MEAN_MOTION_DOT><MEAN_MOTION_DDOT>0</MEAN_MOTION_DDOT></tleParameters></data></segment></body></omm>
<omm id="CCSDS_OMM_VERS" version="2.0">
<header><CREATION_DATE/><ORIGINATOR/></header><body><segment><metadata><OBJECT_NAME>ORBCOMM FM13</OBJECT_NAME><OBJECT_ID>1998-046H</OBJECT_ID><CENTER_NAME>EARTH</CENTER_NAME><REF_FRAME>TEME</REF_FRAME><TIME_SYSTEM>UTC</TIME_SYSTEM><MEAN_ELEMENT_THEORY>SGP4</MEAN_ELEMENT_THEORY></metadata><data><meanElements><EPOCH>2024-10-04T11:11:33.129024</EPOCH><MEAN_MOTION>14.36226466</MEAN_MOTION><ECCENTRICITY>.0002608</ECCENTRICITY><INCLINATION>44.9974</INCLINATION><RA_OF_ASC_NODE>314.9152</RA_OF_ASC_NODE><ARG_OF_PERICENTER>52.1349</ARG_OF_PERICENTER><MEAN_ANOMALY>307.9734</MEAN_ANOMALY></meanElements><tleParameters><EPHEMERIS_TYPE>0</EPHEMERIS_TYPE><CLASSIFICATION_TYPE>U</CLASSIFICATION_TYPE><NORAD_CAT_ID>25420</NORAD_CAT_ID><ELEMENT_SET_NO>999</ELEMENT_SET_NO><REV_AT_EPOCH>36645</REV_AT_EPOCH><BSTAR>.2044E-2</BSTAR><MEAN_MOTION_DOT>.5884E-4</MEAN_MOTION_DOT><MEAN_MOTION_DDOT>0</MEAN_MOTION_DDOT></tleParameters></data></segment></body></omm>
<omm id="CCSDS_OMM_VERS" version="2.0">
<header><CREATION_DATE/><ORIGINATOR/></header><body><segment><metadata><OBJECT_NAME>ORBCOMM FM21</OBJECT_NAME><OBJECT_ID>1998-053A</OBJECT_ID><CENTER_NAME>EARTH</CENTER_NAME><REF_FRAME>TEME</REF_FRAME><TIME_SYSTEM>UTC</TIME_SYSTEM><MEAN_ELEMENT_THEORY>SGP4</MEAN_ELEMENT_THEORY></metadata><data><meanElements><EPOCH>2024-10-04T11:56:59.448192</EPOCH><MEAN_MOTION>14.36060188</MEAN_MOTION><ECCENTRICITY>.0001062</ECCENTRICITY><INCLINATION>45.0092</INCLINATION><RA_OF_ASC_NODE>39.3369</RA_OF_ASC_NODE><ARG_OF_PERICENTER>232.2980</ARG_OF_PERICENTER><MEAN_ANOMALY>127.7771</MEAN_ANOMALY></meanElements><tleParameters><EPHEMERIS_TYPE>0</EPHEMERIS_TYPE><CLASSIFICATION_TYPE>U</CLASSIFICATION_TYPE><NORAD_CAT_ID>25475</NORAD_CAT_ID><ELEMENT_SET_NO>999</ELEMENT_SET_NO><REV_AT_EPOCH>36047</REV_AT_EPOCH><BSTAR>.20354E-2</BSTAR><MEAN_MOTION_DOT>.5838E-4</MEAN_MOTION_DOT><MEAN_MOTION_DDOT>0</MEAN_MOTION_DDOT></tleParameters></data></segment></body></omm>
<omm id="CCSDS_OMM_VERS" version="2.0">
<header><CREATION_DATE/><ORIGINATOR/></header><body><segment><metadata><OBJECT_NAME>ORBCOMM FM22</OBJECT_NAME><OBJECT_ID>1998-053B</OBJECT_ID><CENTER_NAME>EARTH</CENTER_NAME><REF_FRAME>TEME</REF_FRAME><TIME_SYSTEM>UTC</TIME_SYSTEM><MEAN_ELEMENT_THEORY>SGP4</MEAN_ELEMENT_THEORY></metadata><data><meanElements><EPOCH>2024-10-04T11:37:26.239872</EPOCH><MEAN_MOTION>14.36750023</MEAN_MOTION><ECCENTRICITY>.0001161</ECCENTRICITY><INCLINATION>45.0090</INCLINATION><RA_OF_ASC_NODE>36.0117</RA_OF_ASC_NODE><ARG_OF_PERICENTER>324.4685</ARG_OF_PERICENTER><MEAN_ANOMALY>35.6086</MEAN_ANOMALY></meanElements><tleParameters><EPHEMERIS_TYPE>0</EPHEMERIS_TYPE><CLASSIFICATION_TYPE>U</CLASSIFICATION_TYPE><NORAD_CAT_ID>25476</NORAD_CAT_ID><ELEMENT_SET_NO>999</ELEMENT_SET_NO><REV_AT_EPOCH>36047</REV_AT_EPOCH><BSTAR>.24848E-2</BSTAR><MEAN_MOTION_DOT>.7262E-4</MEAN_MOTION_DOT><MEAN_MOTION_DDOT>0</MEAN_MOTION_DDOT></tleParameters></data></segment></body></omm>
<omm id="CCSDS_OMM_VERS" version="2.0">
<header><CREATION_DATE/><ORIGINATOR/></header><body><segment><metadata><OBJECT_NAME>ORBCOMM FM23</OBJECT_NAME><OBJECT_ID>1998-053C</OBJECT_ID><CENTER_NAME>EARTH</CENTER_NAME><REF_FRAME>TEME</REF_FRAME><TIME_SYSTEM>UTC</TIME_SYSTEM><MEAN_ELEMENT_THEORY>SGP4</MEAN_ELEMENT_THEORY></metadata><data><meanElements><EPOCH>2024-10-04T12:30:38.613600</EPOCH><MEAN_MOTION>14.36125527</MEAN_MOTION><ECCENTRICITY>.0000725</ECCENTRICITY><INCLINATION>45.0094</INCLINATION><RA_OF_ASC_NODE>41.5996</RA_OF_ASC_NODE><ARG_OF_PERICENTER>294.6473</ARG_OF_PERICENTER><MEAN_ANOMALY>65.4299</MEAN_ANOMALY></meanElements><tleParameters><EPHEMERIS_TYPE>0</EPHEMERIS_TYPE><CLASSIFICATION_TYPE>U</CLASSIFICATION_TYPE><NORAD_CAT_ID>25477</NORAD_CAT_ID><ELEMENT_SET_NO>999</ELEMENT_SET_NO><REV_AT_EPOCH>36062</REV_AT_EPOCH><BSTAR>.25609E-2</BSTAR><MEAN_MOTION_DOT>.7394E-4</MEAN_MOTION_DOT><MEAN_MOTION_DDOT>0</MEAN_MOTION_DDOT></tleParameters></data></segment></body></omm>

</ndm>
