ORBCOMM FM20            
1 25416U 98046D   24278.50227996  .00005610  00000+0  19621-2 0  9990
2 25416  44.9941 311.1268 0002018 277.7678  82.2940 14.35945493367499
ORBCOMM FM16            
1 25417U 98046E   24278.48828739  .00007571  00000+0  25653-2 0  9990
2 25417  44.9935 305.7298 0001596  72.5753 287.5269 14.37191722367449
ORBCOMM FM15            
1 25418U 98046F   24278.40531000  .00006477  00000+0  22161-2 0  9990
2 25418  44.9969 310.5510 0001141  73.6244 286.4729 14.36874955367434
ORBCOMM FM14            
1 25419U 98046G   24278.47868767  .00006910  00000+0  23495-2 0  9994
2 25419  44.9958 309.0758 0000866 351.8190   8.2643 14.37117030367401
ORBCOMM FM13            
1 25420U 98046H   24278.46635566  .00005884  00000+0  20440-2 0  9990
2 25420  44.9974 314.9152 0002608  52.1349 307.9734 14.36226466366454
ORBCOMM FM21            
1 25475U 98053A   24278.49791028  .00005838  00000+0  20354-2 0  9990
2 25475  45.0092  39.3369 0001062 232.2980 127.7771 14.36060188360472
ORBCOMM FM22            
1 25476U 98053B   24278.48433148  .00007262  00000+0  24848-2 0  9991
2 25476  45.0090  36.0117 0001161 324.4685  35.6086 14.36750023360472
ORBCOMM FM23            
1 25477U 98053C   24278.52128025  .00007394  00000+0  25609-2 0  9994
2 25477  45.0094  41.5996 0000725 294.6473  65.4299 14.36125527360620
